NORAD_CAT_ID,OBJECT_NAME,OBJECT_TYPE,EPOCH,MEAN_MOTION,ECCENTRICITY,INCLINATION,RA_OF_ASC_NODE,ARG_OF_PERICENTER,MEAN_ANOMALY,BSTAR,MEAN_MOTION_DOT,MEAN_MOTION_DDOT,TLE_LINE0,TLE_LINE1,TLE_LINE2,SEMIMAJOR_AXIS,PERIOD,APOGEE,PERIGEE,DECAYED
55745.0,STARLINK-5565,PAYLOAD,2023-08-11 02:17:14,14.98341545,0.0002747,69.999,98.747,265.925,94.1595,-6.9321e-05,-9.2e-06,0.0,0 STARLINK-5565,1 55745U 23028E   23223.09530395 -.00000920  00000-0 -69321-4 0  9995,2 55745  69.9990  98.7470 0002747 265.9250  94.1595 14.98341545 24995,6950.157,96.106,573.931,570.113,0.0
55745.0,STARLINK-5565,PAYLOAD,2023-08-11 08:41:46,14.98333203,0.0003014,69.9989,98.0737,270.0675,90.0138,-3.4598e-05,-5.06e-06,0.0,0 STARLINK-5565,1 55745U 23028E   23223.36234738 -.00000506  00000-0 -34598-4 0  9995,2 55745  69.9989  98.0737 0003014 270.0675  90.0138 14.98333203 25034,6950.183,96.107,574.143,569.953,0.0
55745.0,STARLINK-5565,PAYLOAD,2023-08-12 08:43:48,14.98313003,0.0003026,69.9996,95.5492,265.2164,94.8649,0.00034298,4e-05,0.0,0 STARLINK-5565,1 55745U 23028E   23224.36375069  .00004000  00000-0  34298-3 0  9996,2 55745  69.9996  95.5492 0003026 265.2164  94.8649 14.98313003 25185,6950.245,96.108,574.214,570.007,0.0
55745.0,STARLINK-5565,PAYLOAD,2023-08-12 16:44:28,14.9832895,0.000301,69.9995,94.7075,269.0587,91.0227,3.6662e-05,3.44e-06,0.0,0 STARLINK-5565,1 55745U 23028E   23224.69754673  .00000344  00000-0  36662-4 0  9999,2 55745  69.9995  94.7075 0003010 269.0587  91.0227 14.98328950 25230,6950.196,96.107,574.153,569.969,0.0
55745.0,STARLINK-5565,PAYLOAD,2023-08-13 18:22:36,14.98328328,0.000306,69.9995,92.0143,267.4594,92.6215,5.0632e-05,5.11e-06,0.0,0 STARLINK-5565,1 55745U 23028E   23225.76570581  .00000511  00000-0  50632-4 0  9991,2 55745  69.9995  92.0143 0003060 267.4594  92.6215 14.98328328 25392,6950.198,96.107,574.19,569.936,0.0
55745.0,STARLINK-5565,PAYLOAD,2023-08-15 00:49:09,14.98334138,0.0003156,69.9993,88.816,270.1904,89.8893,2.357e-05,1.88e-06,0.0,0 STARLINK-5565,1 55745U 23028E   23227.03414266  .00000188  00000-0  23570-4 0  9991,2 55745  69.9993  88.8160 0003156 270.1904  89.8893 14.98334138 25581,6950.18,96.107,574.239,569.852,0.0
55745.0,STARLINK-5565,PAYLOAD,2023-08-16 00:51:10,14.98329084,0.0002867,69.9998,86.2902,267.2161,92.867,0.00015241,1.726e-05,0.0,0 STARLINK-5565,1 55745U 23028E   23228.03554156  .00001726  00000-0  15241-3 0  9999,2 55745  69.9998  86.2902 0002867 267.2161  92.8670 14.98329084 25730,6950.196,96.107,574.053,570.068,0.0
55745.0,STARLINK-5565,PAYLOAD,2023-08-17 00:53:09,14.98352946,0.0002997,69.9989,83.766,268.1587,91.9229,0.00020676,2.376e-05,0.0,0 STARLINK-5565,1 55745U 23028E   23229.03691997  .00002376  00000-0  20676-3 0  9995,2 55745  69.9989  83.7660 0002997 268.1587  91.9229 14.98352946 25888,6950.122,96.106,574.07,569.904,0.0
55745.0,STARLINK-5565,PAYLOAD,2023-08-17 13:42:15,14.98335554,0.0001584,69.9941,82.4198,268.5165,91.5812,0.00019526,2.238e-05,0.0,0 STARLINK-5565,1 55745U 23028E   23229.57100803  .00002238  00000-0  19526-3 0  9994,2 55745  69.9941  82.4198 0001584 268.5165  91.5812 14.98335554 25964,6950.176,96.107,573.142,570.94,0.0
55745.0,STARLINK-5565,PAYLOAD,2023-08-18 00:55:12,14.98328784,0.0003325,69.999,81.2422,274.7395,85.3385,-7.4696e-05,-9.84e-06,0.0,0 STARLINK-5565,1 55745U 23028E   23230.03833805 -.00000984  00000-0 -74696-4 0  9990,2 55745  69.9990  81.2422 0003325 274.7395  85.3385 14.98328784 26036,6950.197,96.107,574.373,569.751,0.0
55745.0,STARLINK-5565,PAYLOAD,2023-08-18 13:44:17,14.9837171,0.0003148,70.0012,79.8935,255.7244,104.3565,-0.0009782,-0.00011758,0.0,0 STARLINK-5565,1 55745U 23028E   23230.57242291 -.00011758  00000-0 -97820-3 0  9996,2 55745  70.0012  79.8935 0003148 255.7244 104.3565 14.98371710 26119,6950.064,96.104,574.117,569.741,0.0
55745.0,STARLINK-5565,PAYLOAD,2023-08-19 00:57:12,14.9838767,0.0003349,69.9989,78.7154,264.595,95.4827,-0.0012339,-0.00014807,0.0,0 STARLINK-5565,1 55745U 23028E   23231.03972807 -.00014807  00000-0 -12339-2 0  9990,2 55745  69.9989  78.7154 0003349 264.5950  95.4827 14.98387670 26185,6950.015,96.103,574.207,569.552,0.0
55745.0,STARLINK-5565,PAYLOAD,2023-08-19 13:46:18,14.98319998,0.0002959,69.998,77.3691,265.071,95.0111,5.6041e-05,5.76e-06,0.0,0 STARLINK-5565,1 55745U 23028E   23231.57382408  .00000576  00000-0  56041-4 0  9997,2 55745  69.9980  77.3691 0002959 265.0710  95.0111 14.98319998 26262,6950.224,96.108,574.145,570.032,0.0
55745.0,STARLINK-5565,PAYLOAD,2023-08-20 18:36:43,14.98326518,0.0002951,69.9999,74.3397,264.7143,95.3679,0.00013886,1.564e-05,0.0,0 STARLINK-5565,1 55745U 23028E   23232.77550293  .00001564  00000-0  13886-3 0  9996,2 55745  69.9999  74.3397 0002951 264.7143  95.3679 14.98326518 26448,6950.204,96.107,574.12,570.018,0.0
55745.0,STARLINK-5565,PAYLOAD,2023-08-21 18:38:44,14.9833031,0.0002871,70.0,71.8144,265.9428,94.1403,2.3612e-05,1.89e-06,0.0,0 STARLINK-5565,1 55745U 23028E   23233.77690489  .00000189  00000-0  23612-4 0  9990,2 55745  70.0000  71.8144 0002871 265.9428  94.1403 14.98330310 26599,6950.192,96.107,574.052,570.062,0.0
55745.0,STARLINK-5565,PAYLOAD,2023-08-22 23:29:09,14.98333665,0.000291,69.9999,68.7844,267.0599,93.0227,-1.2771e-05,-2.45e-06,0.0,0 STARLINK-5565,1 55745U 23028E   23234.97858140 -.00000245  00000-0 -12771-4 0  9992,2 55745  69.9999  68.7844 0002910 267.0599  93.0227 14.98333665 26779,6950.182,96.107,574.069,570.024,0.0
55745.0,STARLINK-5565,PAYLOAD,2023-08-23 21:55:02,14.98330492,0.0002917,70.0001,66.4284,267.9053,92.1772,2.2209e-05,1.72e-06,0.0,0 STARLINK-5565,1 55745U 23028E   23235.91322166  .00000172  00000-0  22209-4 0  9995,2 55745  70.0001  66.4284 0002917 267.9053  92.1772 14.98330492 26916,6950.191,96.107,574.084,570.029,0.0
55745.0,STARLINK-5565,PAYLOAD,2023-08-24 23:33:11,14.98330739,0.0002868,70.0005,63.735,268.0906,91.9925,2.7314e-05,2.33e-06,0.0,0 STARLINK-5565,1 55745U 23028E   23236.98138045  .00000233  00000-0  27314-4 0  9994,2 55745  70.0005  63.7350 0002868 268.0906  91.9925 14.98330739 27077,6950.191,96.107,574.049,570.062,0.0
55745.0,STARLINK-5565,PAYLOAD,2023-08-25 13:58:22,14.98346221,0.0002163,70.0006,62.2196,220.3626,139.7373,0.00018237,2.085e-05,0.0,0 STARLINK-5565,1 55745U 23028E   23237.58220810  .00002085  00000-0  18237-3 0  9993,2 55745  70.0006  62.2196 0002163 220.3626 139.7373 14.98346221 27169,6950.143,96.106,573.511,570.504,0.0
55745.0,STARLINK-5565,PAYLOAD,2023-08-25 18:46:44,14.98371628,0.0002818,70.0003,61.7155,270.175,89.9086,0.00045091,5.297e-05,0.0,0 STARLINK-5565,1 55745U 23028E   23237.78246046  .00005297  00000-0  45091-3 0  9990,2 55745  70.0003  61.7155 0002818 270.1750  89.9086 14.98371628 27192,6950.064,96.104,573.888,569.971,0.0
55745.0,STARLINK-5565,PAYLOAD,2023-08-25 20:22:52,14.98373998,0.0002691,70.0006,61.547,269.23,90.8551,0.0004759,5.596e-05,0.0,0 STARLINK-5565,1 55745U 23028E   23237.84921692  .00005596  00000-0  47590-3 0  9992,2 55745  70.0006  61.5470 0002691 269.2300  90.8551 14.98373998 27204,6950.057,96.104,573.792,570.052,0.0
55745.0,STARLINK-5565,PAYLOAD,2023-08-26 12:24:16,14.9833825,0.0002099,70.0003,59.8616,229.3632,130.7345,-0.0002019,-2.501e-05,0.0,0 STARLINK-5565,1 55745U 23028E   23238.51685571 -.00002501  00000-0 -20190-3 0  9992,2 55745  70.0003  59.8616 0002099 229.3632 130.7345 14.98338250 27308,6950.167,96.106,573.491,570.574,0.0
55745.0,STARLINK-5565,PAYLOAD,2023-08-26 15:36:32,14.98333658,0.0002241,69.9985,59.524,238.5136,121.5804,-0.00025377,-3.12e-05,0.0,0 STARLINK-5565,1 55745U 23028E   23238.65037901 -.00003120  00000-0 -25377-3 0  9995,2 55745  69.9985  59.5240 0002241 238.5136 121.5804 14.98333658 27321,6950.182,96.107,573.604,570.489,0.0
55745.0,STARLINK-5565,PAYLOAD,2023-08-26 22:01:05,14.9833136,0.0002338,69.9996,58.8532,227.6055,132.4907,-0.00026039,-3.198e-05,0.0,0 STARLINK-5565,1 55745U 23028E   23238.91741920 -.00003198  00000-0 -26039-3 0  9998,2 55745  69.9996  58.8532 0002338 227.6055 132.4907 14.98331360 27362,6950.189,96.107,573.679,570.429,0.0
55745.0,STARLINK-5565,PAYLOAD,2023-08-27 17:14:41,14.9833386,0.0002572,70.0002,56.8337,261.0737,99.0131,-0.0003089,-3.777e-05,0.0,0 STARLINK-5565,1 55745U 23028E   23239.71853832 -.00003777  00000-0 -30890-3 0  9996,2 55745  70.0002  56.8337 0002572 261.0737  99.0131 14.98333860 27480,6950.181,96.107,573.834,570.258,0.0
55745.0,STARLINK-5565,PAYLOAD,2023-08-27 20:26:57,14.98338308,0.0002962,70.0002,56.497,272.2779,87.8041,-0.00032685,-3.992e-05,0.0,0 STARLINK-5565,1 55745U 23028E   23239.85205551 -.00003992  00000-0 -32685-3 0  9993,2 55745  70.0002  56.4970 0002962 272.2779  87.8041 14.98338308 27502,6950.167,96.106,574.091,569.974,0.0
55745.0,STARLINK-5565,PAYLOAD,2023-08-28 20:28:58,14.98322064,0.0002816,70.0003,53.972,264.8789,95.2048,0.00013742,1.547e-05,0.0,0 STARLINK-5565,1 55745U 23028E   23240.85345408  .00001547  00000-0  13742-3 0  9996,2 55745  70.0003  53.9720 0002816 264.8789  95.2048 14.98322064 27652,6950.217,96.108,574.04,570.125,0.0
55745.0,STARLINK-5565,PAYLOAD,2023-08-28 22:05:06,14.98322737,0.0002821,70.0002,53.8034,264.8939,95.1898,0.0001424,1.606e-05,0.0,0 STARLINK-5565,1 55745U 23028E   23240.92021387  .00001606  00000-0  14240-3 0  9991,2 55745  70.0002  53.8034 0002821 264.8939  95.1898 14.98322737 27661,6950.215,96.107,574.041,570.12,0.0
55745.0,STARLINK-5565,PAYLOAD,2023-08-29 20:30:59,14.9832554,0.0002768,70.0005,51.4469,265.5366,94.5477,0.00010795,1.195e-05,0.0,0 STARLINK-5565,1 55745U 23028E   23241.85485757  .00001195  00000-0  10795-3 0  9993,2 55745  70.0005  51.4469 0002768 265.5366  94.5477 14.98325540 27809,6950.207,96.107,573.996,570.148,0.0
55745.0,STARLINK-5565,PAYLOAD,2023-08-29 22:07:07,14.98326202,0.0002772,70.0005,51.2786,265.5254,94.5588,0.00011257,1.25e-05,0.0,0 STARLINK-5565,1 55745U 23028E   23241.92161721  .00001250  00000-0  11257-3 0  9999,2 55745  70.0005  51.2786 0002772 265.5254  94.5588 14.98326202 27810,6950.205,96.107,573.996,570.143,0.0
